[Satellite]
VERSION=1.1
NAME=IRIDIUM 107 [+]
NICKNAME=IRIDIUM 107 [+]
TLE1=1 42960U 17061F   20157.69313279  .00000075  00000-0  19611-4 0  9995
TLE2=2 42960  86.4008 225.6065 0002341  89.6601 270.4863 14.34215828139141
STATUS=0
